[{"OBJECT_NAME":"EOSSAT-1","OBJECT_ID":"2023-001AW","EPOCH":"2026-03-09T17:40:07.010400","MEAN_MOTION":15.32339828,"ECCENTRICITY":0.00112629,"INCLINATION":97.3357,"RA_OF_ASC_NODE":130.2294,"ARG_OF_PERICENTER":110.3168,"MEAN_ANOMALY":249.9285,"EPHEMERIS_TYPE":0,"CLASSIFICATION_TYPE":"U","NORAD_CAT_ID":55053,"ELEMENT_SET_NO":999,"REV_AT_EPOCH":17668,"BSTAR":0.00024844399,"MEAN_MOTION_DOT":7.695e-5,"MEAN_MOTION_DDOT":0},{"OBJECT_NAME":"STARLINK-34414","OBJECT_ID":"2025-137AC","EPOCH":"2026-03-09T21:30:53.849376","MEAN_MOTION":15.30213049,"ECCENTRICITY":0.00012426,"INCLINATION":53.159,"RA_OF_ASC_NODE":334.4765,"ARG_OF_PERICENTER":115.3515,"MEAN_ANOMALY":244.7615,"EPHEMERIS_TYPE":0,"CLASSIFICATION_TYPE":"U","NORAD_CAT_ID":64620,"ELEMENT_SET_NO":999,"REV_AT_EPOCH":4076,"BSTAR":0.00092246412,"MEAN_MOTION_DOT":0.00027072,"MEAN_MOTION_DDOT":0}]
